CCSDS_OMM_VERS = 2.0
CREATION_DATE  = 
ORIGINATOR     = 

OBJECT_NAME    = GUOWANG GROUP 20 OBJECT H
OBJECT_ID      = 2026-047H
CENTER_NAME    = EARTH
REF_FRAME      = TEME
TIME_SYSTEM    = UTC
MEAN_ELEMENT_THEORY = SGP/SGP4

EPOCH          = 2026-04-02T11:48:51.915456
MEAN_MOTION    = 13.87381469
ECCENTRICITY   = .00009093
INCLINATION    = 50.0086
RA_OF_ASC_NODE = 334.0113
ARG_OF_PERICENTER = 305.9014
MEAN_ANOMALY   = 54.1799

EPHEMERIS_TYPE = 0
CLASSIFICATION_TYPE = U
NORAD_CAT_ID   = 68136
ELEMENT_SET_NO = 999
REV_AT_EPOCH   = 289
BSTAR          = .48250788E-4
MEAN_MOTION_DOT = -.88E-6
MEAN_MOTION_DDOT = 0

CCSDS_OMM_VERS = 2.0
CREATION_DATE  = 
ORIGINATOR     = 

OBJECT_NAME    = GUOWANG GROUP 20 OBJECT J
OBJECT_ID      = 2026-047J
CENTER_NAME    = EARTH
REF_FRAME      = TEME
TIME_SYSTEM    = UTC
MEAN_ELEMENT_THEORY = SGP/SGP4

EPOCH          = 2026-04-02T16:56:00.731328
MEAN_MOTION    = 13.87066479
ECCENTRICITY   = .00006698
INCLINATION    = 50.0058
RA_OF_ASC_NODE = 333.1317
ARG_OF_PERICENTER = 182.6269
MEAN_ANOMALY   = 177.4625

EPHEMERIS_TYPE = 0
CLASSIFICATION_TYPE = U
NORAD_CAT_ID   = 68137
ELEMENT_SET_NO = 999
REV_AT_EPOCH   = 293
BSTAR          = .24623265E-4
MEAN_MOTION_DOT = -.116E-5
MEAN_MOTION_DDOT = 0

CCSDS_OMM_VERS = 2.0
CREATION_DATE  = 
ORIGINATOR     = 

OBJECT_NAME    = CZ-8A R/B
OBJECT_ID      = 2026-047K
CENTER_NAME    = EARTH
REF_FRAME      = TEME
TIME_SYSTEM    = UTC
MEAN_ELEMENT_THEORY = SGP/SGP4

EPOCH          = 2026-04-04T07:15:27.933696
MEAN_MOTION    = 14.12233379
ECCENTRICITY   = .00447638
INCLINATION    = 49.9533
RA_OF_ASC_NODE = 324.7658
ARG_OF_PERICENTER = 226.2116
MEAN_ANOMALY   = 133.5085

EPHEMERIS_TYPE = 0
CLASSIFICATION_TYPE = U
NORAD_CAT_ID   = 68138
ELEMENT_SET_NO = 999
REV_AT_EPOCH   = 317
BSTAR          = .12801095E-3
MEAN_MOTION_DOT = .85E-6
MEAN_MOTION_DDOT = 0

CCSDS_OMM_VERS = 2.0
CREATION_DATE  = 
ORIGINATOR     = 

OBJECT_NAME    = SHIYAN-30 03
OBJECT_ID      = 2026-048A
CENTER_NAME    = EARTH
REF_FRAME      = TEME
TIME_SYSTEM    = UTC
MEAN_ELEMENT_THEORY = SGP/SGP4

EPOCH          = 2026-04-04T03:19:17.654592
MEAN_MOTION    = 14.91775399
ECCENTRICITY   = .00024831
INCLINATION    = 35.0014
RA_OF_ASC_NODE = 351.5577
ARG_OF_PERICENTER = 61.9613
MEAN_ANOMALY   = 298.1343

EPHEMERIS_TYPE = 0
CLASSIFICATION_TYPE = U
NORAD_CAT_ID   = 68139
ELEMENT_SET_NO = 999
REV_AT_EPOCH   = 330
BSTAR          = .49028129E-3
MEAN_MOTION_DOT = .5011E-4
MEAN_MOTION_DDOT = 0

CCSDS_OMM_VERS = 2.0
CREATION_DATE  = 
ORIGINATOR     = 

OBJECT_NAME    = SHIYAN-30 04
OBJECT_ID      = 2026-048B
CENTER_NAME    = EARTH
REF_FRAME      = TEME
TIME_SYSTEM    = UTC
MEAN_ELEMENT_THEORY = SGP/SGP4

EPOCH          = 2026-04-04T03:20:17.654208
MEAN_MOTION    = 14.91773124
ECCENTRICITY   = .00009534
INCLINATION    = 34.9929
RA_OF_ASC_NODE = 351.5554
ARG_OF_PERICENTER = 68.0880
MEAN_ANOMALY   = 291.9926

EPHEMERIS_TYPE = 0
CLASSIFICATION_TYPE = U
NORAD_CAT_ID   = 68140
ELEMENT_SET_NO = 999
REV_AT_EPOCH   = 330
BSTAR          = .47178373E-3
MEAN_MOTION_DOT = .4821E-4
MEAN_MOTION_DDOT = 0

CCSDS_OMM_VERS = 2.0
CREATION_DATE  = 
ORIGINATOR     = 

OBJECT_NAME    = CZ-2D R/B
OBJECT_ID      = 2026-048C
CENTER_NAME    = EARTH
REF_FRAME      = TEME
TIME_SYSTEM    = UTC
MEAN_ELEMENT_THEORY = SGP/SGP4

EPOCH          = 2026-04-04T03:37:55.051104
MEAN_MOTION    = 14.95594512
ECCENTRICITY   = .0015798
INCLINATION    = 35.1309
RA_OF_ASC_NODE = 351.0996
ARG_OF_PERICENTER = 189.9994
MEAN_ANOMALY   = 170.0402

EPHEMERIS_TYPE = 0
CLASSIFICATION_TYPE = U
NORAD_CAT_ID   = 68141
ELEMENT_SET_NO = 999
REV_AT_EPOCH   = 331
BSTAR          = .26274627E-3
MEAN_MOTION_DOT = .295E-4
MEAN_MOTION_DDOT = 0

CCSDS_OMM_VERS = 2.0
CREATION_DATE  = 
ORIGINATOR     = 

OBJECT_NAME    = STARLINK-36604
OBJECT_ID      = 2026-049A
CENTER_NAME    = EARTH
REF_FRAME      = TEME
TIME_SYSTEM    = UTC
MEAN_ELEMENT_THEORY = SGP/SGP4

EPOCH          = 2026-04-04T04:35:04.253280
MEAN_MOTION    = 15.75333702
ECCENTRICITY   = .00015741
INCLINATION    = 97.2844
RA_OF_ASC_NODE = 114.7098
ARG_OF_PERICENTER = 89.6069
MEAN_ANOMALY   = 270.5376

EPHEMERIS_TYPE = 0
CLASSIFICATION_TYPE = U
NORAD_CAT_ID   = 68142
ELEMENT_SET_NO = 999
REV_AT_EPOCH   = 343
BSTAR          = .19009015E-2
MEAN_MOTION_DOT = .295256E-2
MEAN_MOTION_DDOT = 0

CCSDS_OMM_VERS = 2.0
CREATION_DATE  = 
ORIGINATOR     = 

OBJECT_NAME    = STARLINK-36995
OBJECT_ID      = 2026-049B
CENTER_NAME    = EARTH
REF_FRAME      = TEME
TIME_SYSTEM    = UTC
MEAN_ELEMENT_THEORY = SGP/SGP4

EPOCH          = 2026-04-04T06:00:02.000160
MEAN_MOTION    = 15.75200960
ECCENTRICITY   = .00012273
INCLINATION    = 97.2848
RA_OF_ASC_NODE = 114.7831
ARG_OF_PERICENTER = 93.4871
MEAN_ANOMALY   = 267.0638

EPHEMERIS_TYPE = 0
CLASSIFICATION_TYPE = U
NORAD_CAT_ID   = 68143
ELEMENT_SET_NO = 999
REV_AT_EPOCH   = 473
BSTAR          = -.44554242E-3
MEAN_MOTION_DOT = -.66104E-3
MEAN_MOTION_DDOT = 0

CCSDS_OMM_VERS = 2.0
CREATION_DATE  = 
ORIGINATOR     = 

OBJECT_NAME    = STARLINK-37020
OBJECT_ID      = 2026-049C
CENTER_NAME    = EARTH
REF_FRAME      = TEME
TIME_SYSTEM    = UTC
MEAN_ELEMENT_THEORY = SGP/SGP4

EPOCH          = 2026-04-04T06:00:02.000160
MEAN_MOTION    = 15.75163425
ECCENTRICITY   = .00013329
INCLINATION    = 97.2850
RA_OF_ASC_NODE = 114.8068
ARG_OF_PERICENTER = 78.5965
MEAN_ANOMALY   = 335.9153

EPHEMERIS_TYPE = 0
CLASSIFICATION_TYPE = U
NORAD_CAT_ID   = 68144
ELEMENT_SET_NO = 999
REV_AT_EPOCH   = 473
BSTAR          = .35393662E-3
MEAN_MOTION_DOT = .52929E-3
MEAN_MOTION_DDOT = 0

CCSDS_OMM_VERS = 2.0
CREATION_DATE  = 
ORIGINATOR     = 

OBJECT_NAME    = STARLINK-36244
OBJECT_ID      = 2026-049D
CENTER_NAME    = EARTH
REF_FRAME      = TEME
TIME_SYSTEM    = UTC
MEAN_ELEMENT_THEORY = SGP/SGP4

EPOCH          = 2026-04-04T04:48:16.312320
MEAN_MOTION    = 15.75314207
ECCENTRICITY   = .00013487
INCLINATION    = 97.2844
RA_OF_ASC_NODE = 114.6965
ARG_OF_PERICENTER = 110.2165
MEAN_ANOMALY   = 249.9245

EPHEMERIS_TYPE = 0
CLASSIFICATION_TYPE = U
NORAD_CAT_ID   = 68145
ELEMENT_SET_NO = 999
REV_AT_EPOCH   = 343
BSTAR          = .14826586E-2
MEAN_MOTION_DOT = .228253E-2
MEAN_MOTION_DDOT = 0

CCSDS_OMM_VERS = 2.0
CREATION_DATE  = 
ORIGINATOR     = 

OBJECT_NAME    = STARLINK-36980
OBJECT_ID      = 2026-049E
CENTER_NAME    = EARTH
REF_FRAME      = TEME
TIME_SYSTEM    = UTC
MEAN_ELEMENT_THEORY = SGP/SGP4

EPOCH          = 2026-04-04T05:40:44.463072
MEAN_MOTION    = 15.80990176
ECCENTRICITY   = .00012236
INCLINATION    = 97.2854
RA_OF_ASC_NODE = 114.8011
ARG_OF_PERICENTER = 95.8387
MEAN_ANOMALY   = 264.3021

EPHEMERIS_TYPE = 0
CLASSIFICATION_TYPE = U
NORAD_CAT_ID   = 68146
ELEMENT_SET_NO = 999
REV_AT_EPOCH   = 344
BSTAR          = .15603217E-2
MEAN_MOTION_DOT = .312152E-2
MEAN_MOTION_DDOT = 0

CCSDS_OMM_VERS = 2.0
CREATION_DATE  = 
ORIGINATOR     = 

OBJECT_NAME    = STARLINK-37055
OBJECT_ID      = 2026-049F
CENTER_NAME    = EARTH
REF_FRAME      = TEME
TIME_SYSTEM    = UTC
MEAN_ELEMENT_THEORY = SGP/SGP4

EPOCH          = 2026-04-04T05:42:54.100224
MEAN_MOTION    = 15.80969705
ECCENTRICITY   = .00007013
INCLINATION    = 97.2857
RA_OF_ASC_NODE = 114.7990
ARG_OF_PERICENTER = 79.8177
MEAN_ANOMALY   = 280.3170

EPHEMERIS_TYPE = 0
CLASSIFICATION_TYPE = U
NORAD_CAT_ID   = 68147
ELEMENT_SET_NO = 999
REV_AT_EPOCH   = 344
BSTAR          = .11448061E-2
MEAN_MOTION_DOT = .226517E-2
MEAN_MOTION_DDOT = 0

